NSL-1                   
1 44391U 19038E   24145.00698582  .00161730  00000+0  27308-2 0  9995
2 44391  97.8808 151.0516 0002323 287.1510  72.9486 15.51039065268317
VDNH-80                 
1 44392U 19038G   24144.55426136  .00370734  00000+0  20470-2 0  9998
2 44392  97.6713 149.9451 0011906 147.6422 212.5577 15.78550134270987
D-STAR ONE (LIGHTSAT)   
1 44393U 19038H   24144.97753446  .00659481  17813-3  19600-2 0  9998
2 44393  97.6631 151.7989 0010820 155.9339 204.2442 15.92378765271341
SONATE                  
1 44400U 19038Q   24144.54054818  .00023542  00000+0  73316-3 0  9991
2 44400  97.7115 137.5566 0016412 184.8801 175.2283 15.33150179270306
LUCKY-7                 
1 44406U 19038W   24144.72722900  .00043858  00000+0  10119-2 0  9994
2 44406  97.7020 141.5090 0014649 166.0162 194.1493 15.42320388270591
LEMUR-2-ALEX-MADDY      
1 44407U 19038X   24144.99049666  .00220613  00000+0  16227-2 0  9997
2 44407  97.6566 147.6010 0013502 140.0224 220.2035 15.72309891271158
BEESAT 9                
1 44412U 19038AC  24144.99590336  .00796977  27829-3  20340-2 0  9992
2 44412  97.6695 151.2722 0010783 163.3433 196.8198 15.95295978270990
JAISAT-1                
1 44419U 19038F   24144.95327348  .00582257  13207-3  20092-2 0  9999
2 44419  97.6700 152.0757 0010439 156.5566 203.6184 15.89443815271351
COSMOS 2535             
1 44421U 19039A   24145.17161851  .00002134  00000+0  23524-3 0  9991
2 44421  97.6678 188.5601 0008650 187.7942 172.3143 14.88504307264223
QIANSHENG 1-01          
1 44486U 19052A   24145.13548585  .00021553  00000+0  85897-3 0  9993
2 44486  97.4116 213.7699 0014061  29.1891 331.0130 15.25139750263038
TIANQI-2                
1 44488U 19052C   24145.16354698  .00053158  00000+0  13902-2 0  9991
2 44488  97.4112 219.5180 0010708   4.4420 355.6918 15.38516415263423
GLOBAL-4                
1 44499U 19054E   24144.99198322  .00018839  00000+0  65130-3 0  9993
2 44499  45.0150 131.3823 0011084  50.8057 309.3810 15.29637740263916
XIAOXIANG 1-07          
1 44519U 19058A   24145.16470542  .00043241  00000+0  22197-2 0  9997
2 44519  97.7808 163.8152 0007379 298.3401  61.7086 15.16353060258084
ZY-1 02D                
1 44528U 19059A   24145.20442349  .00000449  00000+0  17107-3 0  9996
2 44528  98.4102 218.2330 0001004 147.2673 212.8576 14.35435090246178
TAURUS-1 (JINNIUZUO 1)  
1 44530U 19059C   24145.17220916  .00011009  00000+0  25590-2 0  9997
2 44530  98.5739 264.7122 0012861 128.7008 231.5341 14.55037716248278
ZHUHAI-1 03A            
1 44534U 19060A   24145.10582043  .00038795  00000+0  11503-2 0  9998
2 44534  97.4927 273.3781 0020552 111.6539 248.6895 15.34520519260411
ZHUHAI-1 03B            
1 44536U 19060C   24143.30785649  .00084640  00000+0  12089-2 0  9997
2 44536  97.4983 272.4376 0016522 151.9666 208.2481 15.55813717260180
ZHUHAI-1 03C            
1 44537U 19060D   24145.11169149  .00085368  00000+0  12493-2 0  9997
2 44537  97.4935 273.6498 0009261 106.5923 253.6349 15.55258665260520
ZHUHAI-1 03D            
1 44538U 19060E   24144.31248919  .00062134  00000+0  10658-2 0  9999
2 44538  97.4774 271.8122 0016765 121.4861 238.8031 15.50824701260382
ZHUHAI-1 03E            
1 44539U 19060F   24145.18149097  .00039057  00000+0  11597-2 0  9994
2 44539  97.4947 273.6429 0024947 143.8062 216.4875 15.34373219260403
ATLAS 5 CENTAUR DEB     
1 44694U 18079BG  24143.15098721 -.00000070  00000+0  00000+0 0  9995
2 44694  12.2830 101.3501 4792530 177.8030 185.5343  1.77405221 33141
GAOFEN-7                
1 44703U 19072A   24145.19225640  .00009862  00000+0  44549-3 0  9995
2 44703  97.3352 219.2256 0006458 143.3772 216.7906 15.21141789253006
STARLINK-1010           
1 44716U 19074D   24144.60295185  .00015952  00000+0  10869-2 0  9991
2 44716  53.0544 247.4118 0001580  96.6110 263.5058 15.06417375249990
JILIN-1 GAOFEN 2A       
1 44777U 19075A   24145.20296777  .00013809  00000+0  66195-3 0  9997
2 44777  97.5795 210.0515 0004756  42.3726 317.7874 15.19020155249778
NINGXIA-1 1             
1 44779U 19076A   24144.94094189  .00000094  00000+0  14599-3 0  9996
2 44779  45.0078 309.9414 0010777 190.0407 170.0213 14.01838202232011
NINGXIA-1 5             
1 44783U 19076E   24145.02460645  .00000119  00000+0  16224-3 0  9990
2 44783  45.0076 308.9153 0011586 178.9430 181.1430 14.01853559232031
KL-ALPHA A              
1 44785U 19077A   24144.82868454  .00000079  00000+0  94619-4 0  9990
2 44785  88.9080 306.2533 0012282 140.8232 219.3814 13.55916979223505
CARTOSAT-3              
1 44804U 19081A   24145.13520988  .00007908  00000+0  37797-3 0  9990
2 44804  97.5338 202.9719 0011283 258.3896 101.6072 15.19234305248939
JILIN-1 GAOFEN 2B       
1 44836U 19086A   24145.18193337  .00014018  00000+0  67094-3 0  9992
2 44836  97.5785 210.5067 0009444  91.7778 268.4538 15.19040040246168
TIANQI-4B               
1 44843U 19087F   24145.17947489  .00178080  00000+0  14817-2 0  9999
2 44843  97.5235 331.8953 0009259 241.3326 118.7005 15.69532909249099
TYVAK-0092              
1 44852U 19089A   24145.09365005  .00081965  00000+0  22404-2 0  9996
2 44852  36.9511 144.1947 0003592 230.4895 129.5541 15.36229677245141
TYVAK-0129              
1 44853U 19089B   24145.18169339  .00092510  00000+0  22932-2 0  9993
2 44853  36.9531 140.2357 0005101 244.0766 115.9463 15.39179788245212
DUCHIFAT-3              
1 44854U 19089C   24145.21814139  .00019541  00000+0  10056-2 0  9990
2 44854  36.9558 194.4678 0007835 245.6230 114.3699 15.15696505244564
ANGELS                  
1 44876U 19092D   24145.09588460  .00010212  00000+0  39072-3 0  9995
2 44876  97.4745 333.6300 0010902  51.1456 309.0754 15.26714148245681
TIANQIN 1 (CAS-6)       
1 44879U 19093A   24145.18157808  .00006053  00000+0  67973-3 0  9996
2 44879  97.8363 224.9473 0013960  39.0833 321.1389 14.87051285239626
ETRSS-1                 
1 44880U 19093B   24145.22731197  .00006293  00000+0  70390-3 0  9995
2 44880  97.8368 225.1187 0014162  39.8266 320.3987 14.87194878239622
TIANYAN 01              
1 44881U 19093C   24145.16734150  .00002238  00000+0  27675-3 0  9994
2 44881  97.8283 222.4128 0015317  45.8196 314.4274 14.83683877239481
TIANYAN 02              
1 44882U 19093D   24145.21704784  .00008921  00000+0  93216-3 0  9990
2 44882  97.8446 227.6557 0014164  35.1396 325.0753 14.89841661239729
CBERS 4A                
1 44883U 19093E   24145.18801212  .00002645  00000+0  34320-3 0  9999
2 44883  97.8304 221.7626 0001916 118.7125 241.4281 14.81582971239437
WEILAI 1R               
1 44884U 19093F   24145.19505487  .00007017  00000+0  75121-3 0  9998
2 44884  97.8367 226.5710 0012556  40.5593 319.6558 14.88953766239736
FLORIPASAT-1            
1 44885U 19093G   24145.17648270  .00009005  00000+0  93769-3 0  9992
2 44885  97.8408 227.9374 0013109  40.6619 319.5575 14.89986607239794
SHUNTIAN                
1 44886U 19093H   24145.16676042  .00005490  00000+0  60843-3 0  9991
2 44886  97.8454 227.9243 0014588  48.6907 311.5563 14.87619710239752
2019-093L               
1 44889U 19093L   24145.15851235  .00006111  00000+0  69792-3 0  9995
2 44889  97.8239 222.1142 0014592  34.2686 325.9468 14.86344258239429
ELEKTRO-L 3             
1 44903U 19095A   24144.40809490 -.00000077  00000+0  00000+0 0  9996
2 44903   0.0882  71.6330 0001405 358.5101  34.3405  1.00272296 16132
GONETS-M 14             
1 44905U 19096A   24144.86911889  .00000070  00000+0  43464-3 0  9992
2 44905  82.5243 192.2680 0013250   6.3387 353.7858 12.42870982199971
GONETS-M 15             
1 44906U 19096B   24144.81463312  .00000050  00000+0  29230-3 0  9994
2 44906  82.5263 192.6350 0015785  27.8155 332.3766 12.42872717199933
GONETS-M 16             
1 44907U 19096C   24144.84054060  .00000036  00000+0  18660-3 0  9993
2 44907  82.5207 191.9090 0012777  67.9410 292.3025 12.42873693199928
RS-44 & BREEZE-KM R/B   
1 44909U 19096E   24144.87619281  .00000010  00000+0 -13012-4 0  9990
2 44909  82.5184 120.9297 0218590 107.9320 254.5744 12.79729993205863
JILIN-1 KUANFU 01       
1 45016U 20003A   24145.16978870  .00008190  00000+0  47613-3 0  9994
2 45016  97.5809 217.9844 0014022 176.4586 183.6746 15.12260191241423
XINGYUN-2 01            
1 45602U 20028A   24145.22061133  .00004996  00000+0  35043-3 0  9998
2 45602  97.4514 146.6785 0009571 273.1906  86.8226 15.05583576221132
XINGYUN-2 02            
1 45603U 20028B   24145.20876108  .00003548  00000+0  25044-3 0  9995
2 45603  97.5147 156.1520 0011677 346.0613  14.0290 15.05523058221137
HAIYANG-1D              
1 45721U 20036A   24145.13354785  .00000484  00000+0  18871-3 0  9995
2 45721  98.5894  85.7944 0002451 149.6826 210.4501 14.34158397206892
M2 PATHFINDER           
1 45727U 20037E   24145.05720710  .00004938  00000+0  43389-3 0  9998
2 45727  97.7763 321.6248 0010676 197.3850 162.7007 14.96980002212338
GAOFEN DUOMO (GFDM)     
1 45856U 20042A   24145.17247026  .00002115  00000+0  30893-3 0  9995
2 45856  97.8686 216.9353 0012384  11.9719 348.1783 14.76705448209729
BY70-2                  
1 45857U 20042B   24145.17272709  .00146185  00000+0  56769-2 0  9997
2 45857  97.9075 237.2378 0009861 268.0800  91.9307 15.25402201210888
ZINYUAN-3               
1 45939U 20051A   24145.16699545  .00012020  00000+0  54271-3 0  9995
2 45939  97.3655 221.9839 0016121  87.3216 272.9865 15.21008510212714
TIANQI-10               
1 45941U 20051C   24145.10857577  .00668022  20400-3  13128-2 0  9997
2 45941  97.3997 253.9682 0010195 265.0765  94.9350 16.00033396214650
Q-SAT                   
1 46026U 20054B   24145.20340921  .00524872  11433-3  13586-2 0  9994
2 46026  97.3340 241.9629 0007671 271.7721  88.2676 15.95052212212696
TIANTUO 5               
1 46234U 20058C   24145.18294753  .00030877  00000+0  79990-3 0  9990
2 46234  97.3009 203.2846 0013394 105.0258 255.2471 15.38894783209097
